[{"OBJECT_NAME":"TIANHUI 4A","OBJECT_ID":"2021-134A","EPOCH":"2026-03-09T23:41:19.127616","MEAN_MOTION":15.45144231,"ECCENTRICITY":0.0011811,"INCLINATION":88.9797,"RA_OF_ASC_NODE":336.8124,"ARG_OF_PERICENTER":97.7034,"MEAN_ANOMALY":262.5567,"EPHEMERIS_TYPE":0,"CLASSIFICATION_TYPE":"U","NORAD_CAT_ID":50572,"ELEMENT_SET_NO":999,"REV_AT_EPOCH":23454,"BSTAR":0.00022158295,"MEAN_MOTION_DOT":0.0001055,"MEAN_MOTION_DDOT":0},{"OBJECT_NAME":"OBJECT B","OBJECT_ID":"2022-158B","EPOCH":"2026-03-09T22:41:40.741152","MEAN_MOTION":15.49759097,"ECCENTRICITY":0.0010727,"INCLINATION":97.4774,"RA_OF_ASC_NODE":189.7942,"ARG_OF_PERICENTER":321.2118,"MEAN_ANOMALY":38.8362,"EPHEMERIS_TYPE":0,"CLASSIFICATION_TYPE":"U","NORAD_CAT_ID":54362,"ELEMENT_SET_NO":999,"REV_AT_EPOCH":18336,"BSTAR":0.0004299082,"MEAN_MOTION_DOT":0.00023884,"MEAN_MOTION_DDOT":0}]
